SL-16 R/B               
1 25400U 98043G   26002.84773876  .00000175  00000+0  92174-4 0  9994
2 25400  98.8152 315.7871 0009411 199.9677 160.1136 14.26031807429602
SL-16 R/B               
1 25407U 98045B   26002.95483793 -.00000044  00000+0  17419-5 0  9997
2 25407  71.0127 319.8113 0005586 140.8030 219.3499 14.16181848417791
ISS (ZARYA)             
1 25544U 98067A   26002.82312794  .00015413  00000+0  28669-3 0  9993
2 25544  51.6329  38.0777 0007543 333.0714  26.9882 15.49046836546129
CZ-4B R/B               
1 25732U 99025C   26002.98512326  .00000150  00000+0  93007-4 0  9998
2 25732  98.6738  48.7868 0037269 172.4573 251.6515 14.18249691378850
OKEAN-O                 
1 25860U 99039A   26002.74570861  .00001490  00000+0  20288-3 0  9995
2 25860  97.9573  63.2629 0001338 113.7819 246.3533 14.80205066424633
SL-16 R/B               
1 25861U 99039B   26002.72065615  .00001255  00000+0  16614-3 0  9997
2 25861  98.0095  61.8703 0016052 109.9361 250.3582 14.81623632427096
DELTA 2 R/B             
1 25876U 99041E   26002.95570533  .00003029  00000+0  52487-3 0  9990
2 25876  51.7590 203.7502 0504162 154.3033 208.3902 14.11482068353744
HELIOS 1B               
1 25977U 99064A   26002.99530014  .00004081  00000+0  45775-3 0  9992
2 25977  98.1755 263.2918 0000435  48.1370 311.9882 14.87387870675499
TERRA                   
1 25994U 99068A   26002.97786175  .00000973  00000+0  20776-3 0  9994
2 25994  97.9718  58.8797 0003086  51.2111  70.1650 14.60931027385484
SL-16 R/B               
1 26070U 00006B   26002.95316203  .00000261  00000+0  15695-3 0  9997
2 26070  71.0016 236.0553 0018838 280.1856  79.7143 14.15814505339251
TITAN 4B R/B            
1 26474U 00047B   26002.95547324  .00006087  00000+0  38636-3 0  9992
2 26474  67.9883 225.2647 0037512 118.7198 241.7729 15.08961618382995
ENVISAT                 
1 27386U 02009A   25365.95019499  .00000264  00000+0  99422-4 0  9995
2 27386  98.3626 316.2065 0001107  88.1807 295.1197 14.39007536249430
